CZ-2C R/B               
1 54039U 22132E   26012.92775612  .00025363  00000+0  34895-3 0  9991
2 54039  97.2949  14.7737 0017171 302.1065  57.8523 15.57082466181684
GSLV R/B                
1 54149U 22138AN  26013.22245987  .00002560  00000+0  22300-3 0  9992
2 54149  87.3829 184.9284 0021619 359.6175   0.5035 14.96328412175638
XRISM                   
1 57800U 23137A   26013.15588006  .00003806  00000+0  21815-3 0  9997
2 57800  31.0024 282.6532 0007938 204.2145 155.8121 15.10753369129381
ACS3                    
1 59588U 24077B   26013.29434264  .00009546  00000+0  80434-2 0  9995
2 59588  97.2416 326.8479 0060018 258.1703 101.2724 13.87104280 86517
SZ-21 MODULE            
1 66515U 25246C   26013.15957275  .00023002  00000+0  23567-3 0  9997
2 66515  41.4740 184.1107 0001745 156.7116 203.3803 15.64420875  9360
